ONEWEB V                
1 54661U 22166V   22347.25001157  .00013183  00000+0  13090-2 0  9998
2 54661  86.5177 156.4468 0009250 218.6098  30.6011 14.91611580  1381
ONEWEB W                
1 54662U 22166W   22347.25001157  .00013139  00000+0  13098-2 0  9998
2 54662  86.5161 156.4426 0008612 217.4623  29.4256 14.91457835  1389
ONEWEB X                
1 54663U 22166X   22347.25001157  .00012969  00000+0  12717-2 0  9996
2 54663  86.5152 156.4438 0011137 225.7097  30.9509 14.92096954  1386
ONEWEB Y                
1 54664U 22166Y   22347.25001157  .00013115  00000+0  12813-2 0  9998
2 54664  86.5158 156.4437 0011410 228.5171  30.3448 14.92243821  1383
ONEWEB Z                
1 54665U 22166Z   22347.25001157  .00012966  00000+0  12720-2 0  9999
2 54665  86.5183 156.4424 0011091 225.1915  31.1607 14.92078634  1386
ONEWEB AA               
1 54666U 22166AA  22347.25001157  .00013061  00000+0  12830-2 0  9999
2 54666  86.5180 156.4424 0010960 224.2663  31.3893 14.92030013  1386
ONEWEB AB               
1 54667U 22166AB  22347.25001157  .00014326  00000+0  14521-2 0  9994
2 54667  86.5156 156.4465 0006233 230.8282   6.0155 14.90806331  1385
ONEWEB AC               
1 54668U 22166AC  22347.25001157  .00014136  00000+0  14283-2 0  9999
2 54668  86.5190 156.4488 0006464 226.2966  12.4867 14.90934320  1384
ONEWEB AD               
1 54669U 22166AD  22347.25001157  .00014090  00000+0  14290-2 0  9997
2 54669  86.5169 156.4473 0006197 231.9139   4.5430 14.90782624  1389
ONEWEB AE               
1 54670U 22166AE  22347.25001157  .00014238  00000+0  14348-2 0  9997
2 54670  86.5189 156.4479 0006763 222.9729  17.4185 14.91037236  1386
ONEWEB AF               
1 54671U 22166AF  22347.25001157  .00013225  00000+0  13346-2 0  9990
2 54671  86.5148 156.4449 0006637 224.7081  14.8645 14.90982206  1387
ONEWEB AG               
1 54672U 22166AG  22347.25001157  .00014005  00000+0  13773-2 0  9992
2 54672  86.5162 156.4445 0010801 223.5035  31.4299 14.91986919  1380
ONEWEB AH               
1 54673U 22166AH  22347.25001157  .00014082  00000+0  14178-2 0  9998
2 54673  86.5152 156.4455 0006845 221.7003  19.2642 14.91074209  1385
ONEWEB AJ               
1 54674U 22166AJ  22347.25001157  .00014111  00000+0  13993-2 0  9996
2 54674  86.5176 156.4464 0009490 218.5062  31.4993 14.91664880  1385
ONEWEB AK               
1 54675U 22166AK  22347.25001157  .00014235  00000+0  14393-2 0  9999
2 54675  86.5189 156.4485 0006396 227.0095  11.3719 14.90906238  1384
ONEWEB AL               
1 54676U 22166AL  22347.25001157  .00013783  00000+0  13749-2 0  9991
2 54676  86.5176 156.4474 0008488 217.2656  29.2176 14.91434648  1384
ONEWEB AM               
1 54677U 22166AM  22347.25001157  .00013719  00000+0  13692-2 0  9998
2 54677  86.5161 156.4435 0008390 217.5982  28.5822 14.91414675  1381
ONEWEB AN               
1 54678U 22166AN  22347.25001157  .00014151  00000+0  14096-2 0  9999
2 54678  86.5163 156.4425 0008729 217.4407  29.8747 14.91489279  1382
ONEWEB AP               
1 54679U 22166AP  22346.66668981 -.00043046  00000+0 -44062-2 0  9991
2 54679  86.5183 156.7048 0006265 233.0447 115.4830 14.90853550  1303
ONEWEB AQ               
1 54680U 22166AQ  22346.66668981 -.00042343  00000+0 -42039-2 0  9994
2 54680  86.5175 156.6998 0010900 226.5723 137.6256 14.92038485  1306
ONEWEB AR               
1 54681U 22166AR  22347.25001157  .00013745  00000+0  13437-2 0  9999
2 54681  86.5181 156.4417 0011313 227.9283  30.4852 14.92218346  1389
2022-167A               
1 54682U 22167A   22347.18724627  .00009917  00000+0  63588-3 0  9996
2 54682  97.5382 122.1190 0013120 251.8569 232.3339 15.08639165   593
2022-167B               
1 54683U 22167B   22347.17940167  .00031458  00000+0  35903-3 0  9990
2 54683  97.5874 122.3436 0204796 311.8185 218.6821 15.40686781   570
CAS-5A                  
1 54684U 22167C   22347.18673701  .00007821  00000+0  50090-3 0  9990
2 54684  97.5391 122.1187 0013422 252.5638 230.5514 15.08751030   581
2022-167D               
1 54685U 22167D   22347.18504807  .00005040  00000+0  31890-3 0  9999
2 54685  97.5441 122.1191 0011959 264.1170 218.9235 15.09389952   587
2022-167E               
1 54686U 22167E   22347.18510623  .00005608  00000+0  35437-3 0  9994
2 54686  97.5422 122.1229 0012053 266.4284 216.8827 15.09387433   582
2022-167F               
1 54687U 22167F   22347.18494303  .00007071  00000+0  44500-3 0  9998
2 54687  97.5389 122.1210 0012718 267.0385 215.9987 15.09437575   582
2022-167G               
1 54688U 22167G   22347.18480414  .00004496  00000+0  28401-3 0  9997
2 54688  97.5341 122.1178 0013193 266.5633 216.4566 15.09491573   589
2022-167H               
1 54689U 22167H   22347.04771611  .00000530  00000+0  36982-4 0  9994
2 54689  97.5470 121.9890 0013034 269.8643 189.0630 15.09503234   565
2022-167J               
1 54690U 22167J   22347.29425158  .00006153  00000+0  38531-3 0  9993
2 54690  97.5355 122.2293 0013388 270.3411  89.6285 15.09664968   600
2022-167K               
1 54691U 22167K   22347.29446380  .00003123  00000+0  19806-3 0  9992
2 54691  97.5416 122.2307 0013850 267.4394  92.5252 15.09576285   607
2022-167L               
1 54692U 22167L   22346.96282118  .00005387  00000+0  33779-3 0  9992
2 54692  97.5438 121.9046 0014229 269.8258  90.1338 15.09666911   553
2022-167M               
1 54693U 22167M   22346.96537417  .00010461  00000+0  67047-3 0  9992
2 54693  97.5410 121.8984 0013168 249.9495 110.0320 15.08639608   529
2022-167N               
1 54694U 22167N   22347.29394607  .00004117  00000+0  25837-3 0  9994
2 54694  97.5385 122.2296 0014445 270.5243  89.4332 15.09772592   604
2022-167P               
1 54695U 22167P   22346.96255561  .00005326  00000+0  33295-3 0  9993
2 54695  97.5403 121.9042 0014705 274.9588  84.9962 15.09775195   555
FALCON 9 R/B            
1 54698U 22168C   22345.32368031  .00002049 -64822-5  00000+0 0  9995
2 54698  29.0000  41.2312 0098300  59.8200  27.0300 16.15592824    07
2022-169A               
1 54699U 22169A   22347.02638747 -.00000136  00000+0  00000+0 0  9997
2 54699  59.9949 154.8810 0006761 246.9080 113.1253 14.29224161    93
2022-169B               
1 54700U 22169B   22347.30609922 -.00000137  00000+0  00000+0 0  9995
2 54700  59.9936 153.9556 0006854 256.0341 103.9922 14.29395507   132
2022-169C               
1 54701U 22169C   22347.29325738 -.00000160  00000+0  00000+0 0  9990
2 54701  59.9542 153.8878 0093765  41.1843 319.6135 14.49496471   135
2022-169D               
1 54702U 22169D   22347.11898471 -.00000136  00000+0  00000+0 0  9994
2 54702  59.9975 154.5760 0006546 236.7354 239.5270 14.29122756   112
